{
  "norad_id": 66388,
  "name": "STARLINK-35647",
  "history": [
    {
      "epoch": "2026-03-28T12:59:23.110080Z",
      "apogee_km": 476.05090824262516,
      "perigee_km": 474.3526508930481,
      "latitude_deg": 2.880288937716131e-05,
      "longitude_deg": 108.37912348274682,
      "height_km": 476.1206761311658,
      "semi_major_axis_km": 6853.338779567836,
      "eccentricity": 0.0001239,
      "inclination_deg": 53.1584,
      "raan_deg": 129.1856,
      "arg_perigee_deg": 91.414,
      "mean_anomaly_deg": 268.7003,
      "mean_motion_rev_day": 15.30204451
    }
  ]
}